{"fetched_at":"2026-07-20T07:40:25.481Z","source":"https://celestrak.org/NORAD/elements/gp.php?GROUP=planet&FORMAT=JSON","constellation":"superdove","records":[{"OBJECT_NAME":"FLOCK 4BE-3","OBJECT_ID":"2024-149CX","EPOCH":"2026-07-19T18:52:54.172704","CLASSIFICATION_TYPE":"U","MEAN_MOTION":15.42489838,"ECCENTRICITY":0.0005331,"INCLINATION":97.3685,"RA_OF_ASC_NODE":285.032,"ARG_OF_PERICENTER":155.4929,"MEAN_ANOMALY":204.6573,"EPHEMERIS_TYPE":0,"NORAD_CAT_ID":60561,"ELEMENT_SET_NO":999,"REV_AT_EPOCH":10736,"BSTAR":0.0002427,"MEAN_MOTION_DOT":0.00010434,"MEAN_MOTION_DDOT":0},{"OBJECT_NAME":"FLOCK 4BE-19","OBJECT_ID":"2024-149CZ","EPOCH":"2026-07-19T18:23:44.849184","CLASSIFICATION_TYPE":"U","MEAN_MOTION":15.45794537,"ECCENTRICITY":0.0006127,"INCLINATION":97.3731,"RA_OF_ASC_NODE":286.7209,"ARG_OF_PERICENTER":161.4217,"MEAN_ANOMALY":198.7257,"EPHEMERIS_TYPE":0,"NORAD_CAT_ID":60563,"ELEMENT_SET_NO":999,"REV_AT_EPOCH":10745,"BSTAR":0.00033039,"MEAN_MOTION_DOT":0.00015935,"MEAN_MOTION_DDOT":0},{"OBJECT_NAME":"FLOCK 4G-8","OBJECT_ID":"2025-009E","EPOCH":"2026-07-19T18:50:33.058176","CLASSIFICATION_TYPE":"U","MEAN_MOTION":15.30293836,"ECCENTRICITY":0.0004528,"INCLINATION":97.3995,"RA_OF_ASC_NODE":282.6642,"ARG_OF_PERICENTER":176.3486,"MEAN_ANOMALY":183.7789,"EPHEMERIS_TYPE":0,"NORAD_CAT_ID":62613,"ELEMENT_SET_NO":999,"REV_AT_EPOCH":8390,"BSTAR":0.00019144,"MEAN_MOTION_DOT":0.00005534,"MEAN_MOTION_DDOT":0},{"OBJECT_NAME":"FLOCK 4G-13","OBJECT_ID":"2025-009N","EPOCH":"2026-07-19T17:58:34.599648","CLASSIFICATION_TYPE":"U","MEAN_MOTION":15.49384247,"ECCENTRICITY":0.0006706,"INCLINATION":97.3936,"RA_OF_ASC_NODE":284.7143,"ARG_OF_PERICENTER":186.1653,"MEAN_ANOMALY":173.9517,"EPHEMERIS_TYPE":0,"NORAD_CAT_ID":62621,"ELEMENT_SET_NO":999,"REV_AT_EPOCH":8403,"BSTAR":0.00095012,"MEAN_MOTION_DOT":0.00052325,"MEAN_MOTION_DDOT":0},{"OBJECT_NAME":"FLOCK 4G-9","OBJECT_ID":"2025-009P","EPOCH":"2026-07-19T17:56:30.409152","CLASSIFICATION_TYPE":"U","MEAN_MOTION":15.28553247,"ECCENTRICITY":0.0004533,"INCLINATION":97.395,"RA_OF_ASC_NODE":281.467,"ARG_OF_PERICENTER":188.1851,"MEAN_ANOMALY":171.9316,"EPHEMERIS_TYPE":0,"NORAD_CAT_ID":62622,"ELEMENT_SET_NO":999,"REV_AT_EPOCH":8383,"BSTAR":0.00016803,"MEAN_MOTION_DOT":0.00004593,"MEAN_MOTION_DDOT":0},{"OBJECT_NAME":"FLOCK 4G-7","OBJECT_ID":"2025-009R","EPOCH":"2026-07-19T18:29:14.974080","CLASSIFICATION_TYPE":"U","MEAN_MOTION":15.29925487,"ECCENTRICITY":0.0003064,"INCLINATION":97.3931,"RA_OF_ASC_NODE":281.9143,"ARG_OF_PERICENTER":168.4302,"MEAN_ANOMALY":191.7009,"EPHEMERIS_TYPE":0,"NORAD_CAT_ID":62624,"ELEMENT_SET_NO":999,"REV_AT_EPOCH":8388,"BSTAR":0.00018686,"MEAN_MOTION_DOT":0.00005338,"MEAN_MOTION_DDOT":0},{"OBJECT_NAME":"FLOCK 4G-12","OBJECT_ID":"2025-009S","EPOCH":"2026-07-19T18:22:51.327840","CLASSIFICATION_TYPE":"U","MEAN_MOTION":15.29827955,"ECCENTRICITY":0.0004663,"INCLINATION":97.401,"RA_OF_ASC_NODE":282.4638,"ARG_OF_PERICENTER":174.0856,"MEAN_ANOMALY":186.0441,"EPHEMERIS_TYPE":0,"NORAD_CAT_ID":62625,"ELEMENT_SET_NO":999,"REV_AT_EPOCH":8388,"BSTAR":0.00020446,"MEAN_MOTION_DOT":0.00005831,"MEAN_MOTION_DDOT":0},{"OBJECT_NAME":"FLOCK 4G-11","OBJECT_ID":"2025-009W","EPOCH":"2026-07-19T18:00:35.326368","CLASSIFICATION_TYPE":"U","MEAN_MOTION":15.29936764,"ECCENTRICITY":0.0003118,"INCLINATION":97.3912,"RA_OF_ASC_NODE":282.0016,"ARG_OF_PERICENTER":171.2872,"MEAN_ANOMALY":188.8423,"EPHEMERIS_TYPE":0,"NORAD_CAT_ID":62629,"ELEMENT_SET_NO":999,"REV_AT_EPOCH":8389,"BSTAR":0.00020326,"MEAN_MOTION_DOT":0.00005815,"MEAN_MOTION_DDOT":0},{"OBJECT_NAME":"FLOCK 4G-26","OBJECT_ID":"2025-009AA","EPOCH":"2026-07-19T18:19:18.759648","CLASSIFICATION_TYPE":"U","MEAN_MOTION":15.30132845,"ECCENTRICITY":0.0004074,"INCLINATION":97.4007,"RA_OF_ASC_NODE":282.6241,"ARG_OF_PERICENTER":164.2026,"MEAN_ANOMALY":195.9343,"EPHEMERIS_TYPE":0,"NORAD_CAT_ID":62633,"ELEMENT_SET_NO":999,"REV_AT_EPOCH":8389,"BSTAR":0.00022762,"MEAN_MOTION_DOT":0.00006562,"MEAN_MOTION_DDOT":0},{"OBJECT_NAME":"FLOCK 4G-28","OBJECT_ID":"2025-009AB","EPOCH":"2026-07-19T18:41:28.830624","CLASSIFICATION_TYPE":"U","MEAN_MOTION":15.35325452,"ECCENTRICITY":0.0002526,"INCLINATION":97.4018,"RA_OF_ASC_NODE":285.4611,"ARG_OF_PERICENTER":152.1137,"MEAN_ANOMALY":208.0242,"EPHEMERIS_TYPE":0,"NORAD_CAT_ID":62634,"ELEMENT_SET_NO":999,"REV_AT_EPOCH":8408,"BSTAR":0.0001358,"MEAN_MOTION_DOT":0.00004577,"MEAN_MOTION_DDOT":0},{"OBJECT_NAME":"FLOCK 4G-24","OBJECT_ID":"2025-009AE","EPOCH":"2026-07-19T18:34:17.088096","CLASSIFICATION_TYPE":"U","MEAN_MOTION":15.30418593,"ECCENTRICITY":0.0004023,"INCLINATION":97.4015,"RA_OF_ASC_NODE":282.9419,"ARG_OF_PERICENTER":153.0253,"MEAN_ANOMALY":207.1197,"EPHEMERIS_TYPE":0,"NORAD_CAT_ID":62637,"ELEMENT_SET_NO":999,"REV_AT_EPOCH":8391,"BSTAR":0.00018595,"MEAN_MOTION_DOT":0.00005394,"MEAN_MOTION_DDOT":0},{"OBJECT_NAME":"FLOCK 4G-3","OBJECT_ID":"2025-009AG","EPOCH":"2026-07-19T18:26:35.629152","CLASSIFICATION_TYPE":"U","MEAN_MOTION":15.29924908,"ECCENTRICITY":0.0003654,"INCLINATION":97.4014,"RA_OF_ASC_NODE":282.6412,"ARG_OF_PERICENTER":157.7791,"MEAN_ANOMALY":202.3609,"EPHEMERIS_TYPE":0,"NORAD_CAT_ID":62639,"ELEMENT_SET_NO":999,"REV_AT_EPOCH":8388,"BSTAR":0.00018098,"MEAN_MOTION_DOT":0.00005167,"MEAN_MOTION_DDOT":0},{"OBJECT_NAME":"FLOCK 4G-27","OBJECT_ID":"2025-009AJ","EPOCH":"2026-07-19T18:55:04.388736","CLASSIFICATION_TYPE":"U","MEAN_MOTION":15.29857198,"ECCENTRICITY":0.0003017,"INCLINATION":97.3924,"RA_OF_ASC_NODE":282.0031,"ARG_OF_PERICENTER":158.4739,"MEAN_ANOMALY":201.6629,"EPHEMERIS_TYPE":0,"NORAD_CAT_ID":62641,"ELEMENT_SET_NO":999,"REV_AT_EPOCH":8388,"BSTAR":0.00017825,"MEAN_MOTION_DOT":0.00005077,"MEAN_MOTION_DDOT":0},{"OBJECT_NAME":"FLOCK 4G-29","OBJECT_ID":"2025-009AK","EPOCH":"2026-07-19T18:33:45.495072","CLASSIFICATION_TYPE":"U","MEAN_MOTION":15.29902424,"ECCENTRICITY":0.0003794,"INCLINATION":97.4012,"RA_OF_ASC_NODE":282.6056,"ARG_OF_PERICENTER":154.1237,"MEAN_ANOMALY":206.0194,"EPHEMERIS_TYPE":0,"NORAD_CAT_ID":62642,"ELEMENT_SET_NO":999,"REV_AT_EPOCH":8388,"BSTAR":0.00014526,"MEAN_MOTION_DOT":0.00004129,"MEAN_MOTION_DDOT":0},{"OBJECT_NAME":"FLOCK 4G-22","OBJECT_ID":"2025-009AN","EPOCH":"2026-07-19T19:00:42.280128","CLASSIFICATION_TYPE":"U","MEAN_MOTION":15.2982156,"ECCENTRICITY":0.0003359,"INCLINATION":97.3997,"RA_OF_ASC_NODE":282.6572,"ARG_OF_PERICENTER":150.7569,"MEAN_ANOMALY":209.386,"EPHEMERIS_TYPE":0,"NORAD_CAT_ID":62645,"ELEMENT_SET_NO":999,"REV_AT_EPOCH":8390,"BSTAR":0.00017829,"MEAN_MOTION_DOT":0.00005073,"MEAN_MOTION_DDOT":0},{"OBJECT_NAME":"FLOCK 4G-25","OBJECT_ID":"2025-009AP","EPOCH":"2026-07-19T18:21:52.168032","CLASSIFICATION_TYPE":"U","MEAN_MOTION":15.3005967,"ECCENTRICITY":0.0002792,"INCLINATION":97.4001,"RA_OF_ASC_NODE":282.7114,"ARG_OF_PERICENTER":153.4618,"MEAN_ANOMALY":206.6766,"EPHEMERIS_TYPE":0,"NORAD_CAT_ID":62646,"ELEMENT_SET_NO":999,"REV_AT_EPOCH":8390,"BSTAR":0.00018167,"MEAN_MOTION_DOT":0.00005209,"MEAN_MOTION_DDOT":0}]}
