FLOCK 4BE-3             
1 60561U 24149CX  26200.78673811  .00010434  00000+0  24270-3 0  9998
2 60561  97.3685 285.0320 0005331 155.4929 204.6573 15.42489838107361
FLOCK 4BE-19            
1 60563U 24149CZ  26200.76649131  .00015935  00000+0  33039-3 0  9990
2 60563  97.3731 286.7209 0006127 161.4217 198.7257 15.45794537107450
FLOCK 4G-8              
1 62613U 25009E   26200.78510484  .00005534  00000+0  19144-3 0  9999
2 62613  97.3995 282.6642 0004528 176.3486 183.7789 15.30293836 83909
FLOCK 4G-13             
1 62621U 25009N   26200.74901157  .00052325  00000+0  95012-3 0  9993
2 62621  97.3936 284.7143 0006706 186.1653 173.9517 15.49384247 84039
FLOCK 4G-9              
1 62622U 25009P   26200.74757418  .00004593  00000+0  16803-3 0  9998
2 62622  97.3950 281.4670 0004533 188.1851 171.9316 15.28553247 83830
FLOCK 4G-7              
1 62624U 25009R   26200.77031220  .00005338  00000+0  18686-3 0  9998
2 62624  97.3931 281.9143 0003064 168.4302 191.7009 15.29925487 83885
FLOCK 4G-12             
1 62625U 25009S   26200.76587185  .00005831  00000+0  20446-3 0  9999
2 62625  97.4010 282.4638 0004663 174.0856 186.0441 15.29827955 83881
FLOCK 4G-11             
1 62629U 25009W   26200.75040887  .00005815  00000+0  20326-3 0  9994
2 62629  97.3912 282.0016 0003118 171.2872 188.8423 15.29936764 83892
FLOCK 4G-26             
1 62633U 25009AA  26200.76341157  .00006562  00000+0  22762-3 0  9990
2 62633  97.4007 282.6241 0004074 164.2026 195.9343 15.30132845 83894
FLOCK 4G-28             
1 62634U 25009AB  26200.77880591  .00004577  00000+0  13580-3 0  9994
2 62634  97.4018 285.4611 0002526 152.1137 208.0242 15.35325452 84087
FLOCK 4G-24             
1 62637U 25009AE  26200.77380889  .00005394  00000+0  18595-3 0  9991
2 62637  97.4015 282.9419 0004023 153.0253 207.1197 15.30418593 83912
FLOCK 4G-3              
1 62639U 25009AG  26200.76846793  .00005167  00000+0  18098-3 0  9999
2 62639  97.4014 282.6412 0003654 157.7791 202.3609 15.29924908 83881
FLOCK 4G-27             
1 62641U 25009AJ  26200.78824524  .00005077  00000+0  17825-3 0  9999
2 62641  97.3924 282.0031 0003017 158.4739 201.6629 15.29857198 83887
FLOCK 4G-29             
1 62642U 25009AK  26200.77344323  .00004129  00000+0  14526-3 0  9995
2 62642  97.4012 282.6056 0003794 154.1237 206.0194 15.29902424 83887
FLOCK 4G-22             
1 62645U 25009AN  26200.79215602  .00005073  00000+0  17829-3 0  9995
2 62645  97.3997 282.6572 0003359 150.7569 209.3860 15.29821560 83901
FLOCK 4G-25             
1 62646U 25009AP  26200.76518713  .00005209  00000+0  18167-3 0  9999
2 62646  97.4001 282.7114 0002792 153.4618 206.6766 15.30059670 83909
